[{"OBJECT_NAME":"ALOS (DAICHI)","OBJECT_ID":"2006-002A","EPOCH":"2026-04-11T05:55:18.821568","MEAN_MOTION":14.69913436,"ECCENTRICITY":0.00014055,"INCLINATION":98.1268,"RA_OF_ASC_NODE":57.0527,"ARG_OF_PERICENTER":114.8561,"MEAN_ANOMALY":245.2791,"EPHEMERIS_TYPE":0,"CLASSIFICATION_TYPE":"U","NORAD_CAT_ID":28931,"ELEMENT_SET_NO":999,"REV_AT_EPOCH":7826,"BSTAR":0.00017213929,"MEAN_MOTION_DOT":9.81e-6,"MEAN_MOTION_DDOT":0},{"OBJECT_NAME":"H-2A R/B","OBJECT_ID":"2006-002B","EPOCH":"2026-04-11T03:10:41.798208","MEAN_MOTION":15.17188697,"ECCENTRICITY":0.00525878,"INCLINATION":98.2471,"RA_OF_ASC_NODE":250.9769,"ARG_OF_PERICENTER":130.7331,"MEAN_ANOMALY":229.8484,"EPHEMERIS_TYPE":0,"CLASSIFICATION_TYPE":"U","NORAD_CAT_ID":28932,"ELEMENT_SET_NO":999,"REV_AT_EPOCH":9935,"BSTAR":0.00035962618,"MEAN_MOTION_DOT":7.323e-5,"MEAN_MOTION_DDOT":0},{"OBJECT_NAME":"RESURS-DK 1","OBJECT_ID":"2006-021A","EPOCH":"2026-04-11T03:10:32.581056","MEAN_MOTION":15.12939142,"ECCENTRICITY":0.00023147,"INCLINATION":69.9318,"RA_OF_ASC_NODE":153.0948,"ARG_OF_PERICENTER":17.5012,"MEAN_ANOMALY":342.6233,"EPHEMERIS_TYPE":0,"CLASSIFICATION_TYPE":"U","NORAD_CAT_ID":29228,"ELEMENT_SET_NO":999,"REV_AT_EPOCH":9243,"BSTAR":8.6333663e-5,"MEAN_MOTION_DOT":1.417e-5,"MEAN_MOTION_DDOT":0},{"OBJECT_NAME":"CZ-4B R/B","OBJECT_ID":"2006-046C","EPOCH":"2026-04-11T03:02:30.185664","MEAN_MOTION":15.17251592,"ECCENTRICITY":0.00338916,"INCLINATION":97.5535,"RA_OF_ASC_NODE":145.9444,"ARG_OF_PERICENTER":152.8208,"MEAN_ANOMALY":207.4809,"EPHEMERIS_TYPE":0,"CLASSIFICATION_TYPE":"U","NORAD_CAT_ID":29507,"ELEMENT_SET_NO":999,"REV_AT_EPOCH":6496,"BSTAR":0.00019956244,"MEAN_MOTION_DOT":3.959e-5,"MEAN_MOTION_DDOT":0},{"OBJECT_NAME":"CZ-2C R/B","OBJECT_ID":"2007-010B","EPOCH":"2026-04-11T06:34:25.627872","MEAN_MOTION":14.20258871,"ECCENTRICITY":0.00587023,"INCLINATION":98.4015,"RA_OF_ASC_NODE":212.925,"ARG_OF_PERICENTER":198.3707,"MEAN_ANOMALY":161.5351,"EPHEMERIS_TYPE":0,"CLASSIFICATION_TYPE":"U","NORAD_CAT_ID":31114,"ELEMENT_SET_NO":999,"REV_AT_EPOCH":98434,"BSTAR":6.9767279e-5,"MEAN_MOTION_DOT":1.11e-6,"MEAN_MOTION_DDOT":0},{"OBJECT_NAME":"COSMO-SKYMED 1","OBJECT_ID":"2007-023A","EPOCH":"2026-04-11T06:58:25.476960","MEAN_MOTION":14.96788798,"ECCENTRICITY":0.00016963,"INCLINATION":97.8891,"RA_OF_ASC_NODE":292.5904,"ARG_OF_PERICENTER":89.8237,"MEAN_ANOMALY":270.3179,"EPHEMERIS_TYPE":0,"CLASSIFICATION_TYPE":"U","NORAD_CAT_ID":31598,"ELEMENT_SET_NO":999,"REV_AT_EPOCH":1978,"BSTAR":0.00021749798,"MEAN_MOTION_DOT":2.429e-5,"MEAN_MOTION_DDOT":0},{"OBJECT_NAME":"COSMOS 2428","OBJECT_ID":"2007-029A","EPOCH":"2026-04-11T02:24:34.636032","MEAN_MOTION":14.1294877,"ECCENTRICITY":0.0009627,"INCLINATION":70.9409,"RA_OF_ASC_NODE":135.3182,"ARG_OF_PERICENTER":242.9645,"MEAN_ANOMALY":117.0494,"EPHEMERIS_TYPE":0,"CLASSIFICATION_TYPE":"U","NORAD_CAT_ID":31792,"ELEMENT_SET_NO":999,"REV_AT_EPOCH":96867,"BSTAR":-2.6169331e-5,"MEAN_MOTION_DOT":-9.7e-7,"MEAN_MOTION_DDOT":0},{"OBJECT_NAME":"SL-16 R/B","OBJECT_ID":"2007-029B","EPOCH":"2026-04-11T06:54:51.622272","MEAN_MOTION":14.14842281,"ECCENTRICITY":0.00028671,"INCLINATION":70.9729,"RA_OF_ASC_NODE":103.8601,"ARG_OF_PERICENTER":273.8568,"MEAN_ANOMALY":97.0916,"EPHEMERIS_TYPE":0,"CLASSIFICATION_TYPE":"U","NORAD_CAT_ID":31793,"ELEMENT_SET_NO":999,"REV_AT_EPOCH":96998,"BSTAR":-8.7339736e-5,"MEAN_MOTION_DOT":-2.17e-6,"MEAN_MOTION_DDOT":0},{"OBJECT_NAME":"KORONAS-FOTON","OBJECT_ID":"2009-003A","EPOCH":"2026-04-11T02:36:41.828544","MEAN_MOTION":15.44275062,"ECCENTRICITY":0.00110546,"INCLINATION":82.4293,"RA_OF_ASC_NODE":242.1471,"ARG_OF_PERICENTER":43.4927,"MEAN_ANOMALY":316.7191,"EPHEMERIS_TYPE":0,"CLASSIFICATION_TYPE":"U","NORAD_CAT_ID":33504,"ELEMENT_SET_NO":999,"REV_AT_EPOCH":95074,"BSTAR":0.00031330679,"MEAN_MOTION_DOT":0.00014485,"MEAN_MOTION_DDOT":0},{"OBJECT_NAME":"CZ-2C R/B","OBJECT_ID":"2011-030B","EPOCH":"2026-04-11T07:47:13.332768","MEAN_MOTION":14.81334031,"ECCENTRICITY":0.00510522,"INCLINATION":97.8596,"RA_OF_ASC_NODE":57.9493,"ARG_OF_PERICENTER":243.4975,"MEAN_ANOMALY":274.4087,"EPHEMERIS_TYPE":0,"CLASSIFICATION_TYPE":"U","NORAD_CAT_ID":37731,"ELEMENT_SET_NO":999,"REV_AT_EPOCH":79492,"BSTAR":0.00011471844,"MEAN_MOTION_DOT":8.6e-6,"MEAN_MOTION_DDOT":0},{"OBJECT_NAME":"H-2A R/B","OBJECT_ID":"2012-025E","EPOCH":"2026-04-11T04:24:29.624544","MEAN_MOTION":14.95388237,"ECCENTRICITY":0.00437302,"INCLINATION":98.4769,"RA_OF_ASC_NODE":70.8483,"ARG_OF_PERICENTER":204.6861,"MEAN_ANOMALY":155.2266,"EPHEMERIS_TYPE":0,"CLASSIFICATION_TYPE":"U","NORAD_CAT_ID":38341,"ELEMENT_SET_NO":999,"REV_AT_EPOCH":75307,"BSTAR":0.00020254025,"MEAN_MOTION_DOT":2.209e-5,"MEAN_MOTION_DDOT":0},{"OBJECT_NAME":"SHIJIAN-16 (SJ-16)","OBJECT_ID":"2013-057A","EPOCH":"2026-04-11T06:36:51.837408","MEAN_MOTION":14.92451876,"ECCENTRICITY":0.00155854,"INCLINATION":74.9706,"RA_OF_ASC_NODE":123.3971,"ARG_OF_PERICENTER":28.335,"MEAN_ANOMALY":331.8682,"EPHEMERIS_TYPE":0,"CLASSIFICATION_TYPE":"U","NORAD_CAT_ID":39358,"ELEMENT_SET_NO":999,"REV_AT_EPOCH":67636,"BSTAR":4.1601388e-5,"MEAN_MOTION_DOT":3.98e-6,"MEAN_MOTION_DDOT":0},{"OBJECT_NAME":"SL-4 R/B","OBJECT_ID":"2014-021B","EPOCH":"2026-04-11T05:01:52.331808","MEAN_MOTION":15.40388769,"ECCENTRICITY":0.00935978,"INCLINATION":51.6065,"RA_OF_ASC_NODE":178.4914,"ARG_OF_PERICENTER":221.7891,"MEAN_ANOMALY":137.592,"EPHEMERIS_TYPE":0,"CLASSIFICATION_TYPE":"U","NORAD_CAT_ID":39679,"ELEMENT_SET_NO":999,"REV_AT_EPOCH":66128,"BSTAR":0.00026087827,"MEAN_MOTION_DOT":0.00012075,"MEAN_MOTION_DDOT":0},{"OBJECT_NAME":"ALOS-2","OBJECT_ID":"2014-029A","EPOCH":"2026-04-11T06:00:20.964096","MEAN_MOTION":14.79470965,"ECCENTRICITY":0.00018416,"INCLINATION":97.9189,"RA_OF_ASC_NODE":199.3736,"ARG_OF_PERICENTER":91.6249,"MEAN_ANOMALY":268.5173,"EPHEMERIS_TYPE":0,"CLASSIFICATION_TYPE":"U","NORAD_CAT_ID":39766,"ELEMENT_SET_NO":999,"REV_AT_EPOCH":64168,"BSTAR":6.1288746e-5,"MEAN_MOTION_DOT":4.06e-6,"MEAN_MOTION_DDOT":0},{"OBJECT_NAME":"YAOGAN-29","OBJECT_ID":"2015-069A","EPOCH":"2026-04-11T07:34:32.547936","MEAN_MOTION":14.83034466,"ECCENTRICITY":6.815e-5,"INCLINATION":98.0102,"RA_OF_ASC_NODE":129.8265,"ARG_OF_PERICENTER":161.143,"MEAN_ANOMALY":198.9809,"EPHEMERIS_TYPE":0,"CLASSIFICATION_TYPE":"U","NORAD_CAT_ID":41038,"ELEMENT_SET_NO":999,"REV_AT_EPOCH":56071,"BSTAR":0.00012080832,"MEAN_MOTION_DOT":9.28e-6,"MEAN_MOTION_DDOT":0},{"OBJECT_NAME":"ASTRO-H (HITOMI)","OBJECT_ID":"2016-012A","EPOCH":"2026-04-11T05:17:21.872256","MEAN_MOTION":15.10215014,"ECCENTRICITY":0.00096462,"INCLINATION":30.9982,"RA_OF_ASC_NODE":146.5832,"ARG_OF_PERICENTER":298.3257,"MEAN_ANOMALY":61.6408,"EPHEMERIS_TYPE":0,"CLASSIFICATION_TYPE":"U","NORAD_CAT_ID":41337,"ELEMENT_SET_NO":999,"REV_AT_EPOCH":55715,"BSTAR":0.00012284068,"MEAN_MOTION_DOT":2.154e-5,"MEAN_MOTION_DDOT":0}]
