ALOS (DAICHI)           
1 28931U 06002A   26101.24674562  .00000981  00000+0  17214-3 0  9992
2 28931  98.1268  57.0527 0001405 114.8561 245.2791 14.69913436 78260
H-2A R/B                
1 28932U 06002B   26101.13242822  .00007323  00000+0  35963-3 0  9999
2 28932  98.2471 250.9769 0052587 130.7331 229.8484 15.17188697 99356
RESURS-DK 1             
1 29228U 06021A   26101.13232154  .00001417  00000+0  86334-4 0  9993
2 29228  69.9318 153.0948 0002314  17.5012 342.6233 15.12939142 92435
CZ-4B R/B               
1 29507U 06046C   26101.12673826  .00003959  00000+0  19956-3 0  9992
2 29507  97.5535 145.9444 0033891 152.8208 207.4809 15.17251592 64963
CZ-2C R/B               
1 31114U 07010B   26101.27390773  .00000111  00000+0  69767-4 0  9997
2 31114  98.4015 212.9250 0058702 198.3707 161.5351 14.20258871984345
COSMO-SKYMED 1          
1 31598U 07023A   26101.29057265  .00002429  00000+0  21750-3 0  9998
2 31598  97.8891 292.5904 0001696  89.8237 270.3179 14.96788798 19781
COSMOS 2428             
1 31792U 07029A   26101.10040088 -.00000097  00000+0 -26169-4 0  9996
2 31792  70.9409 135.3182 0009627 242.9645 117.0494 14.12948770968677
SL-16 R/B               
1 31793U 07029B   26101.28809748 -.00000217  00000+0 -87340-4 0  9994
2 31793  70.9729 103.8601 0002867 273.8568  97.0916 14.14842281969988
KORONAS-FOTON           
1 33504U 09003A   26101.10881746  .00014485  00000+0  31331-3 0  9997
2 33504  82.4293 242.1471 0011054  43.4927 316.7191 15.44275062950745
CZ-2C R/B               
1 37731U 11030B   26101.32445987  .00000860  00000+0  11472-3 0  9999
2 37731  97.8596  57.9493 0051052 243.4975 274.4087 14.81334031794922
H-2A R/B                
1 38341U 12025E   26101.18367621  .00002209  00000+0  20254-3 0  9991
2 38341  98.4769  70.8483 0043730 204.6861 155.2266 14.95388237753077
SHIJIAN-16 (SJ-16)      
1 39358U 13057A   26101.27559997  .00000398  00000+0  41601-4 0  9992
2 39358  74.9706 123.3971 0015585  28.3350 331.8682 14.92451876676360
SL-4 R/B                
1 39679U 14021B   26101.20963347  .00012075  00000+0  26088-3 0  9997
2 39679  51.6065 178.4914 0093597 221.7891 137.5920 15.40388769661287
ALOS-2                  
1 39766U 14029A   26101.25024264  .00000406  00000+0  61289-4 0  9991
2 39766  97.9189 199.3736 0001841  91.6249 268.5173 14.79470965641688
YAOGAN-29               
1 41038U 15069A   26101.31565449  .00000928  00000+0  12081-3 0  9997
2 41038  98.0102 129.8265 0000681 161.1430 198.9809 14.83034466560714
ASTRO-H (HITOMI)        
1 41337U 16012A   26101.22039204  .00002154  00000+0  12284-3 0  9991
2 41337  30.9982 146.5832 0009646 298.3257  61.6408 15.10215014557159
